OSCAR 7 (AO-7)          
1 07530U 74089B   20223.97975397 -.00000034  00000-0  71259-4 0  9994
2 07530 101.8038 193.4253 0011769 259.5307 144.7766 12.53644507 93060
UOSAT 2 (UO-11)         
1 14781U 84021B   20223.93545247  .00000075  00000-0  15231-4 0  9992
2 14781  97.5899 233.1987 0009213  31.5443 328.6322 14.83183364939905
LUSAT (LO-19)           
1 20442U 90005G   20224.11593423 -.00000009  00000-0  13157-4 0  9995
2 20442  98.6949 171.5597 0011798 359.8993   0.2186 14.32958154596443
EYESAT A (AO-27)        
1 22825U 93061C   20223.94567005 -.00000018  00000-0  11123-4 0  9995
2 22825  98.9244 227.7718 0007768 212.4365 147.6340 14.30090178401601
ITAMSAT (IO-26)         
1 22826U 93061D   20224.05920926 -.00000014  00000-0  12376-4 0  9991
2 22826  98.9186 227.8291 0008492 199.7394 160.3460 14.30426289402105
RADIO ROSTO (RS-15)     
1 23439U 94085A   20223.84398859 -.00000045  00000-0 -81734-4 0  9998
2 23439  64.8159 158.2921 0150775  31.8501 329.1434 11.27568902 55150
JAS-2 (FO-29)           
1 24278U 96046B   20223.29412360 -.00000022  00000-0  16233-4 0  9998
2 24278  98.5875 326.0885 0349454 235.3407 121.4334 13.53098853184165
TECHSAT 1B (GO-32)      
1 25397U 98043D   20223.84185953 -.00000011  00000-0  14558-4 0  9992
2 25397  98.7301 164.9329 0000162 232.8104 127.3060 14.23688623147294
ISS (ZARYA)             
1 25544U 98067A   20224.12924490  .00000904  00000-0  24423-4 0  9993
2 25544  51.6457  76.5465 0001336  28.5737 117.2470 15.49158492240532
PCSAT (NO-44)           
1 26931U 01043C   20223.63106262 -.00000054  00000-0  11119-4 0  9991
2 26931  67.0527   2.5822 0006063 274.7505  85.2904 14.30584088984824
SAUDISAT 1C (SO-50)     
1 27607U 02058C   20224.12656353 -.00000042  00000-0  14384-4 0  9999
2 27607  64.5539 207.2087 0041115 160.2384 200.0323 14.75650916948924
CUTE-1 (CO-55)          
1 27844U 03031E   20223.74327489  .00000030  00000-0  33205-4 0  9995
2 27844  98.6819 230.6581 0008641 257.1608 102.8605 14.22250279887853
CUBESAT XI-IV (CO-57)   
1 27848U 03031J   20223.99683577  .00000014  00000-0  26202-4 0  9990
2 27848  98.6884 231.4692 0008518 270.5967  89.4235 14.21835754887722
MOZHAYETS 4 (RS-22)     
1 27939U 03042A   20224.22968399  .00000061  00000-0  19652-4 0  9991
2 27939  98.0990 358.3445 0013223 175.0553 185.0791 14.66876868902042
CUBESAT XI-V            
1 28895U 05043F   20223.82630316  .00000094  00000-0  26934-4 0  9993
2 28895  98.0170 358.6805 0018165 108.3127 252.0054 14.63789282788569
CUTE-1.7+APD II (CO-65) 
1 32785U 08021C   20223.78310160  .00000184  00000-0  25379-4 0  9994
2 32785  97.5759 209.4189 0011957 318.8772  41.1543 14.88498102665955
DELFI-C3 (DO-64)        
1 32789U 08021G   20223.81955038  .00000839  00000-0  58624-4 0  9997
2 32789  97.4146 264.7124 0013478 125.2841 234.9650 15.07843569670004
SEEDS II (CO-66)        
1 32791U 08021J   20224.02551442  .00000138  00000-0  19238-4 0  9995
2 32791  97.5429 215.7728 0011661 282.8054  77.1862 14.91086986666591
YUBILEINY (RS-30)       
1 32953U 08025A   20224.04513838  .00000037  00000-0  19437-3 0  9996
2 32953  82.5003 243.9520 0018075 296.5731  63.3500 12.43097704554414
KKS-1 (KISEKI)          
1 33499U 09002H   20223.90395880  .00000047  00000-0  14849-4 0  9991
2 33499  98.3113  80.1517 0008207 318.3045  41.7537 14.75550425620618
SWISSCUBE               
1 35932U 09051B   20224.04127107  .00000096  00000-0  32813-4 0  9995
2 35932  98.6119  48.0809 0006860 328.2079  31.8702 14.56413523577811
BEESAT-1                
1 35933U 09051C   20223.74605932  .00000074  00000-0  27780-4 0  9992
2 35933  98.6112  49.6437 0005386 346.2562  13.8487 14.56486735577802
ITUPSAT1                
1 35935U 09051E   20223.49772288  .00000063  00000-0  25597-4 0  9997
2 35935  98.6219  49.5798 0007671 342.5674  17.5258 14.55630668577568
XIWANG-1 (HOPE-1)       
1 36122U 09072B   20223.74855421 -.00000064  00000-0 -55831-4 0  9995
2 36122 100.0950 211.8206 0008061  90.9865 269.2173 13.16355468512014
JUGNU                   
1 37839U 11058B   20223.97226559  .00000312  00000-0  24481-4 0  9998
2 37839  19.9619 312.1457 0018784 269.7549 248.3090 14.12685140456610
SRMSAT                  
1 37841U 11058D   20224.08947917  .00000320  00000-0  30704-4 0  9996
2 37841  19.9735  16.8902 0011850 123.8290 194.5491 14.10665844455988
M-CUBED & EXP-1 PRIME   
1 37855U 11061F   20223.77571037  .00000487  00000-0  32192-4 0  9993
2 37855 101.7168 340.1923 0170462 273.6515  84.5218 15.06403837479853
STRAND-1                
1 39090U 13009E   20224.15815351  .00000012  00000-0  19272-4 0  9991
2 39090  98.4529  67.2422 0010206 118.1108 242.1110 14.35139878390554
SOMP                    
1 39134U 13015E   20223.28793384  .00000794  00000-0  44429-4 0  9990
2 39134  64.8629 103.2091 0028942 235.1152 124.7255 15.21169683404249
BEESAT-3                
1 39135U 13015F   20223.71710083  .00000574  00000-0  37416-4 0  9998
2 39135  64.8667 126.1556 0035059 234.0961 125.6910 15.18268828403845
BEESAT-2                
1 39136U 13015G   20223.19351995  .00000774  00000-0  47758-4 0  9996
2 39136  64.8724 133.0039 0033528 273.9635  85.7658 15.17663518403661
ZACUBE-1 (TSHEPISOSAT)  
1 39417U 13066B   20223.94577544  .00000161  00000-0  26392-4 0  9998
2 39417  97.5667 218.9419 0060421  98.9463 261.8597 14.81300955363109
GOMX-1                  
1 39430U 13066Q   20224.17486204  .00000219  00000-0  48596-4 0  9995
2 39430  97.7929 159.4019 0151417  12.7673 347.7296 14.59422140357788
CUBEBUG-2 (LO-74)       
1 39440U 13066AA  20223.99358888  .00000132  00000-0  25190-4 0  9990
2 39440  97.6345 203.4933 0080464 162.0663 198.3416 14.76036145361825
FUNCUBE-1 (AO-73)       
1 39444U 13066AE  20224.11462986  .00000222  00000-0  33337-4 0  9996
2 39444  97.5607 221.3615 0059561  90.5631 270.2408 14.82159475362055
UWE-3                   
1 39446U 13066AG  20223.88886052  .00000143  00000-0  25414-4 0  9994
2 39446  97.6012 210.5606 0071049 131.3203 229.4153 14.78569405360618
SPROUT                  
1 39770U 14029E   20223.82573816  .00000633  00000-0  75372-4 0  9991
2 39770  97.9029 329.8872 0009409 141.9868 218.2009 14.87813869337147
UNISAT-6                
1 40012U 14033C   20223.84288670  .00000129  00000-0  26475-4 0  9990
2 40012  97.7060  76.0911 0058040 183.0880 176.9979 14.74139126330436
DUCHIFAT-1              
1 40021U 14033M   20223.50727165  .00000345  00000-0  40721-4 0  9990
2 40021  97.9425 155.0784 0014252 106.7767 253.5015 14.90945280333948
QB50P1                  
1 40025U 14033R   20224.01594616  .00000233  00000-0  30623-4 0  9990
2 40025  97.9137 148.3186 0013667 116.4406 243.8215 14.89167225333723
NUDT-PHONESAT           
1 40900U 15049B   20224.13712850  .00001941  00000-0  82238-4 0  9991
2 40900  97.4301 234.6195 0013404 145.0244 283.6238 15.24293792271524
ZDPS 2A                 
1 40901U 15049C   20224.16732821  .00000881  00000-0  46103-4 0  9998
2 40901  97.4617 229.1723 0013277 175.9309 254.6210 15.18389710270877
ZDPS 2B                 
1 40902U 15049D   20224.08678083  .00000922  00000-0  48072-4 0  9992
2 40902  97.4608 226.3677 0013355 173.1919 273.8904 15.18386184270830
XW-2A                   
1 40903U 15049E   20224.10287324  .00001923  00000-0  45050-4 0  9995
2 40903  97.2833 273.0853 0014733  68.2291  15.6333 15.43271146274901
KAITUO 1A               
1 40904U 15049F   20224.11451498  .00000487  00000-0  28959-4 0  9995
2 40904  97.4776 224.3523 0013937 187.8160 240.4741 15.15753293270523
2015-049G               
1 40905U 15049G   20224.10885242  .00000421  00000-0  26346-4 0  9999
2 40905  97.4863 221.5362 0015339 185.3080 244.3736 15.14596402270357
XW-2C                   
1 40906U 15049H   20224.15427650  .00000316  00000-0  19820-4 0  9992
2 40906  97.4781 224.7000 0014682 177.8982 246.6741 15.16128984270548
XW-2D                   
1 40907U 15049J   20223.81279301  .00000567  00000-0  32621-4 0  9995
2 40907  97.4762 224.0782 0013854 175.8167 266.5003 15.16370155270519
LILACSAT-2              
1 40908U 15049K   20224.22452751 -.00000030  00000-0  19852-5 0  9992
2 40908  97.4920 222.7615 0015451 186.8022 230.0011 15.14074366270285
XW-2F                   
1 40910U 15049M   20224.07215257  .00000911  00000-0  48007-4 0  9996
2 40910  97.4681 226.9912 0014809 164.4224 268.0193 15.18033408270626
XW-2B                   
1 40911U 15049N   20224.19236291  .00000741  00000-0  41628-4 0  9994
2 40911  97.4769 225.1500 0013802 174.7829 251.1380 15.16297055270466
KAITUO 1B               
1 40912U 15049P   20223.85748935  .00000964  00000-0  47264-4 0  9999
2 40912  97.4481 230.9804 0015677 143.2914 336.9364 15.20438135270989
TIANWANG 1C (TW-1C)     
1 40926U 15051B   20224.10243068  .00023631  00000-0  21498-3 0  9999
2 40926  97.0784 276.2963 0004658 219.6859 203.4647 15.67937063275586
TIANWANG 1A (TW-1A)     
1 40928U 15051D   20224.07493296  .00002651  00000-0  62212-4 0  9996
2 40928  97.1066 250.5742 0010152 358.8191  58.1760 15.42877224273790
LAPAN-A2                
1 40931U 15052B   20223.88038481  .00000640  00000-0  00000+0 0  9998
2 40931   5.9993 307.2501 0013712 327.1827 166.1019 14.76640236263314
E-ST@R-II               
1 41459U 16025D   20224.12644945  .00001338  00000-0  70778-4 0  9990
2 41459  98.1094 336.9811 0164611  28.2156 332.7876 15.06569181235671
AAUSAT 4                
1 41460U 16025E   20224.04625417  .00001480  00000-0  75469-4 0  9996
2 41460  98.1081 339.4220 0153457  16.6704 343.9483 15.08935367235872
NUSAT-1 (FRESCO)        
1 41557U 16033B   20224.18920909  .00001052  00000-0  41046-4 0  9990
2 41557  97.4037 314.0619 0011890 251.9495 108.0449 15.28127682234133
BEESAT-4                
1 41619U 16040W   20223.91989512  .00001185  00000-0  51559-4 0  9999
2 41619  97.3154 282.1567 0010747 357.0961   3.0212 15.24135226217697
